[{"OBJECT_NAME":"STARLINK-33644","OBJECT_ID":"2025-065R","EPOCH":"2026-03-09T19:36:14.530176","MEAN_MOTION":15.27593119,"ECCENTRICITY":0.00024769,"INCLINATION":43.003,"RA_OF_ASC_NODE":106.8035,"ARG_OF_PERICENTER":265.9603,"MEAN_ANOMALY":94.0966,"EPHEMERIS_TYPE":0,"CLASSIFICATION_TYPE":"U","NORAD_CAT_ID":63414,"ELEMENT_SET_NO":999,"REV_AT_EPOCH":5285,"BSTAR":0.00079325613,"MEAN_MOTION_DOT":0.0002164,"MEAN_MOTION_DDOT":0},{"OBJECT_NAME":"COSMOS 2588","OBJECT_ID":"2025-109A","EPOCH":"2026-03-09T19:28:59.107008","MEAN_MOTION":15.29122656,"ECCENTRICITY":0.0005019,"INCLINATION":72.9704,"RA_OF_ASC_NODE":73.5401,"ARG_OF_PERICENTER":308.678,"MEAN_ANOMALY":51.3966,"EPHEMERIS_TYPE":0,"CLASSIFICATION_TYPE":"U","NORAD_CAT_ID":64095,"ELEMENT_SET_NO":999,"REV_AT_EPOCH":4442,"BSTAR":0.00032611,"MEAN_MOTION_DOT":9.169e-5,"MEAN_MOTION_DDOT":0}]
